CCSDS_OMM_VERS = 2.0
CREATION_DATE  = 
ORIGINATOR     = 

OBJECT_NAME    = TWILIGHT AH
OBJECT_ID      = 2026-004AH
CENTER_NAME    = EARTH
REF_FRAME      = TEME
TIME_SYSTEM    = UTC
MEAN_ELEMENT_THEORY = SGP/SGP4

EPOCH          = 2026-01-27T11:59:37.442688
MEAN_MOTION    = 15.18171648
ECCENTRICITY   = .0010716
INCLINATION    = 97.4463
RA_OF_ASC_NODE = 28.6194
ARG_OF_PERICENTER = 104.1515
MEAN_ANOMALY   = 256.0910

EPHEMERIS_TYPE = 0
CLASSIFICATION_TYPE = U
NORAD_CAT_ID   = 67394
ELEMENT_SET_NO = 999
REV_AT_EPOCH   = 241
BSTAR          = .62878E-3
MEAN_MOTION_DOT = .12811E-3
MEAN_MOTION_DDOT = 0

CCSDS_OMM_VERS = 2.0
CREATION_DATE  = 
ORIGINATOR     = 

OBJECT_NAME    = TWILIGHT AJ
OBJECT_ID      = 2026-004AJ
CENTER_NAME    = EARTH
REF_FRAME      = TEME
TIME_SYSTEM    = UTC
MEAN_ELEMENT_THEORY = SGP/SGP4

EPOCH          = 2026-01-27T10:03:15.661728
MEAN_MOTION    = 14.87776992
ECCENTRICITY   = .0004154
INCLINATION    = 97.8006
RA_OF_ASC_NODE = 28.3235
ARG_OF_PERICENTER = 219.8803
MEAN_ANOMALY   = 140.2109

EPHEMERIS_TYPE = 0
CLASSIFICATION_TYPE = U
NORAD_CAT_ID   = 67395
ELEMENT_SET_NO = 999
REV_AT_EPOCH   = 234
BSTAR          = .45595E-3
MEAN_MOTION_DOT = .4109E-4
MEAN_MOTION_DDOT = 0

CCSDS_OMM_VERS = 2.0
CREATION_DATE  = 
ORIGINATOR     = 

OBJECT_NAME    = TWILIGHT AK
OBJECT_ID      = 2026-004AK
CENTER_NAME    = EARTH
REF_FRAME      = TEME
TIME_SYSTEM    = UTC
MEAN_ELEMENT_THEORY = SGP/SGP4

EPOCH          = 2026-01-27T10:30:43.775424
MEAN_MOTION    = 15.17790109
ECCENTRICITY   = .0008879
INCLINATION    = 97.4500
RA_OF_ASC_NODE = 28.5573
ARG_OF_PERICENTER = 105.1663
MEAN_ANOMALY   = 255.0554

EPHEMERIS_TYPE = 0
CLASSIFICATION_TYPE = U
NORAD_CAT_ID   = 67396
ELEMENT_SET_NO = 999
REV_AT_EPOCH   = 240
BSTAR          = .44888E-3
MEAN_MOTION_DOT = .9018E-4
MEAN_MOTION_DDOT = 0

CCSDS_OMM_VERS = 2.0
CREATION_DATE  = 
ORIGINATOR     = 

OBJECT_NAME    = TWILIGHT AL
OBJECT_ID      = 2026-004AL
CENTER_NAME    = EARTH
REF_FRAME      = TEME
TIME_SYSTEM    = UTC
MEAN_ELEMENT_THEORY = SGP/SGP4

EPOCH          = 2026-01-27T05:48:40.633344
MEAN_MOTION    = 15.17655916
ECCENTRICITY   = .00079
INCLINATION    = 97.4521
RA_OF_ASC_NODE = 28.3651
ARG_OF_PERICENTER = 106.0212
MEAN_ANOMALY   = 254.1893

EPHEMERIS_TYPE = 0
CLASSIFICATION_TYPE = U
NORAD_CAT_ID   = 67397
ELEMENT_SET_NO = 999
REV_AT_EPOCH   = 237
BSTAR          = .86503E-3
MEAN_MOTION_DOT = .1739E-3
MEAN_MOTION_DDOT = 0

CCSDS_OMM_VERS = 2.0
CREATION_DATE  = 
ORIGINATOR     = 

OBJECT_NAME    = TWILIGHT AM
OBJECT_ID      = 2026-004AM
CENTER_NAME    = EARTH
REF_FRAME      = TEME
TIME_SYSTEM    = UTC
MEAN_ELEMENT_THEORY = SGP/SGP4

EPOCH          = 2026-01-27T10:30:02.295648
MEAN_MOTION    = 15.17848200
ECCENTRICITY   = .0008651
INCLINATION    = 97.4559
RA_OF_ASC_NODE = 28.5703
ARG_OF_PERICENTER = 111.6986
MEAN_ANOMALY   = 248.5169

EPHEMERIS_TYPE = 0
CLASSIFICATION_TYPE = U
NORAD_CAT_ID   = 67398
ELEMENT_SET_NO = 999
REV_AT_EPOCH   = 240
BSTAR          = .65597E-3
MEAN_MOTION_DOT = .13238E-3
MEAN_MOTION_DDOT = 0

CCSDS_OMM_VERS = 2.0
CREATION_DATE  = 
ORIGINATOR     = 

OBJECT_NAME    = TWILIGHT AN
OBJECT_ID      = 2026-004AN
CENTER_NAME    = EARTH
REF_FRAME      = TEME
TIME_SYSTEM    = UTC
MEAN_ELEMENT_THEORY = SGP/SGP4

EPOCH          = 2026-01-27T12:02:37.363776
MEAN_MOTION    = 15.18001770
ECCENTRICITY   = .0009384
INCLINATION    = 97.4548
RA_OF_ASC_NODE = 28.6349
ARG_OF_PERICENTER = 111.4250
MEAN_ANOMALY   = 248.7986

EPHEMERIS_TYPE = 0
CLASSIFICATION_TYPE = U
NORAD_CAT_ID   = 67399
ELEMENT_SET_NO = 999
REV_AT_EPOCH   = 241
BSTAR          = .68147E-3
MEAN_MOTION_DOT = .1382E-3
MEAN_MOTION_DDOT = 0

CCSDS_OMM_VERS = 2.0
CREATION_DATE  = 
ORIGINATOR     = 

OBJECT_NAME    = CONNECTA IOT-13
OBJECT_ID      = 2026-004AP
CENTER_NAME    = EARTH
REF_FRAME      = TEME
TIME_SYSTEM    = UTC
MEAN_ELEMENT_THEORY = SGP/SGP4

EPOCH          = 2026-01-27T10:23:00.236832
MEAN_MOTION    = 15.18299741
ECCENTRICITY   = .0010831
INCLINATION    = 97.4545
RA_OF_ASC_NODE = 28.5737
ARG_OF_PERICENTER = 112.5846
MEAN_ANOMALY   = 247.6535

EPHEMERIS_TYPE = 0
CLASSIFICATION_TYPE = U
NORAD_CAT_ID   = 67400
ELEMENT_SET_NO = 999
REV_AT_EPOCH   = 240
BSTAR          = .68358E-3
MEAN_MOTION_DOT = .13988E-3
MEAN_MOTION_DDOT = 0

CCSDS_OMM_VERS = 2.0
CREATION_DATE  = 
ORIGINATOR     = 

OBJECT_NAME    = CONNECTA IOT-14
OBJECT_ID      = 2026-004AQ
CENTER_NAME    = EARTH
REF_FRAME      = TEME
TIME_SYSTEM    = UTC
MEAN_ELEMENT_THEORY = SGP/SGP4

EPOCH          = 2026-01-27T11:56:20.321088
MEAN_MOTION    = 15.18400075
ECCENTRICITY   = .0011548
INCLINATION    = 97.4486
RA_OF_ASC_NODE = 28.6280
ARG_OF_PERICENTER = 108.0689
MEAN_ANOMALY   = 252.1804

EPHEMERIS_TYPE = 0
CLASSIFICATION_TYPE = U
NORAD_CAT_ID   = 67401
ELEMENT_SET_NO = 999
REV_AT_EPOCH   = 241
BSTAR          = .48102E-3
MEAN_MOTION_DOT = .9848E-4
MEAN_MOTION_DDOT = 0

CCSDS_OMM_VERS = 2.0
CREATION_DATE  = 
ORIGINATOR     = 

OBJECT_NAME    = CONNECTA IOT-15
OBJECT_ID      = 2026-004AR
CENTER_NAME    = EARTH
REF_FRAME      = TEME
TIME_SYSTEM    = UTC
MEAN_ELEMENT_THEORY = SGP/SGP4

EPOCH          = 2026-01-27T12:20:02.695776
MEAN_MOTION    = 15.16823009
ECCENTRICITY   = .0004979
INCLINATION    = 97.4550
RA_OF_ASC_NODE = 28.6198
ARG_OF_PERICENTER = 90.9381
MEAN_ANOMALY   = 269.2422

EPHEMERIS_TYPE = 0
CLASSIFICATION_TYPE = U
NORAD_CAT_ID   = 67402
ELEMENT_SET_NO = 999
REV_AT_EPOCH   = 240
BSTAR          = .3981E-3
MEAN_MOTION_DOT = .7765E-4
MEAN_MOTION_DDOT = 0

CCSDS_OMM_VERS = 2.0
CREATION_DATE  = 
ORIGINATOR     = 

OBJECT_NAME    = SHIJIAN-29B (SJ-29B)
OBJECT_ID      = 2025-315C
CENTER_NAME    = EARTH
REF_FRAME      = TEME
TIME_SYSTEM    = UTC
MEAN_ELEMENT_THEORY = SGP/SGP4

EPOCH          = 2026-01-27T10:07:51.581856
MEAN_MOTION    = 1.00273561
ECCENTRICITY   = .0001145
INCLINATION    = 3.0403
RA_OF_ASC_NODE = 98.8142
ARG_OF_PERICENTER = 315.0420
MEAN_ANOMALY   = 297.8997

EPHEMERIS_TYPE = 0
CLASSIFICATION_TYPE = U
NORAD_CAT_ID   = 67403
ELEMENT_SET_NO = 999
REV_AT_EPOCH   = 27
BSTAR          = 0
MEAN_MOTION_DOT = -.61E-6
MEAN_MOTION_DDOT = 0

CCSDS_OMM_VERS = 2.0
CREATION_DATE  = 
ORIGINATOR     = 

OBJECT_NAME    = STARLINK-36484
OBJECT_ID      = 2026-005A
CENTER_NAME    = EARTH
REF_FRAME      = TEME
TIME_SYSTEM    = UTC
MEAN_ELEMENT_THEORY = SGP/SGP4

EPOCH          = 2026-01-27T12:00:01.999296
MEAN_MOTION    = 15.72812651
ECCENTRICITY   = .0001052
INCLINATION    = 42.9999
RA_OF_ASC_NODE = 115.6874
ARG_OF_PERICENTER = 288.5348
MEAN_ANOMALY   = 249.5437

EPHEMERIS_TYPE = 0
CLASSIFICATION_TYPE = U
NORAD_CAT_ID   = 67404
ELEMENT_SET_NO = 999
REV_AT_EPOCH   = 351
BSTAR          = -.16028E-1
MEAN_MOTION_DOT = -.1976647E-1
MEAN_MOTION_DDOT = 0

CCSDS_OMM_VERS = 2.0
CREATION_DATE  = 
ORIGINATOR     = 

OBJECT_NAME    = STARLINK-36452
OBJECT_ID      = 2026-005B
CENTER_NAME    = EARTH
REF_FRAME      = TEME
TIME_SYSTEM    = UTC
MEAN_ELEMENT_THEORY = SGP/SGP4

EPOCH          = 2026-01-27T12:00:01.999296
MEAN_MOTION    = 15.72811757
ECCENTRICITY   = .0001012
INCLINATION    = 43.0000
RA_OF_ASC_NODE = 115.6826
ARG_OF_PERICENTER = 291.9606
MEAN_ANOMALY   = 248.0329

EPHEMERIS_TYPE = 0
CLASSIFICATION_TYPE = U
NORAD_CAT_ID   = 67405
ELEMENT_SET_NO = 999
REV_AT_EPOCH   = 351
BSTAR          = -.16E-1
MEAN_MOTION_DOT = -.1973506E-1
MEAN_MOTION_DDOT = 0

