TWILIGHT AH             
1 67394U 26004AH  26027.49973892  .00012811  00000+0  62878-3 0  9995
2 67394  97.4463  28.6194 0010716 104.1515 256.0910 15.18171648  2418
TWILIGHT AJ             
1 67395U 26004AJ  26027.41893127  .00004109  00000+0  45595-3 0  9998
2 67395  97.8006  28.3235 0004154 219.8803 140.2109 14.87776992  2346
TWILIGHT AK             
1 67396U 26004AK  26027.43800666  .00009018  00000+0  44888-3 0  9995
2 67396  97.4500  28.5573 0008879 105.1663 255.0554 15.17790109  2404
TWILIGHT AL             
1 67397U 26004AL  26027.24213696  .00017390  00000+0  86503-3 0  9998
2 67397  97.4521  28.3651 0007900 106.0212 254.1893 15.17655916  2375
TWILIGHT AM             
1 67398U 26004AM  26027.43752657  .00013238  00000+0  65597-3 0  9992
2 67398  97.4559  28.5703 0008651 111.6986 248.5169 15.17848200  2408
TWILIGHT AN             
1 67399U 26004AN  26027.50182134  .00013820  00000+0  68147-3 0  9999
2 67399  97.4548  28.6349 0009384 111.4250 248.7986 15.18001770  2414
CONNECTA IOT-13         
1 67400U 26004AP  26027.43264163  .00013988  00000+0  68358-3 0  9996
2 67400  97.4545  28.5737 0010831 112.5846 247.6535 15.18299741  2400
CONNECTA IOT-14         
1 67401U 26004AQ  26027.49745742  .00009848  00000+0  48102-3 0  9995
2 67401  97.4486  28.6280 0011548 108.0689 252.1804 15.18400075  2415
CONNECTA IOT-15         
1 67402U 26004AR  26027.51392009  .00007765  00000+0  39810-3 0  9995
2 67402  97.4550  28.6198 0004979  90.9381 269.2422 15.16823009  2402
SHIJIAN-29B (SJ-29B)    
1 67403U 25315C   26027.42212479 -.00000061  00000+0  00000+0 0  9990
2 67403   3.0403  98.8142 0001145 315.0420 297.8997  1.00273561   275
STARLINK-36484          
1 67404U 26005A   26027.50002314 -.01976647  00000+0 -16028-1 0  9995
2 67404  42.9999 115.6874 0001052 288.5348 249.5437 15.72812651  3514
STARLINK-36452          
1 67405U 26005B   26027.50002314 -.01973506  00000+0 -16000-1 0  9997
2 67405  43.0000 115.6826 0001012 291.9606 248.0329 15.72811757  3518
